[{"OBJECT_NAME":"STARLINK-4434","OBJECT_ID":"2022-099AN","EPOCH":"2026-03-09T20:53:08.550240","MEAN_MOTION":15.01260791,"ECCENTRICITY":0.00032518,"INCLINATION":97.6017,"RA_OF_ASC_NODE":190.4041,"ARG_OF_PERICENTER":88.8351,"MEAN_ANOMALY":271.3246,"EPHEMERIS_TYPE":0,"CLASSIFICATION_TYPE":"U","NORAD_CAT_ID":53501,"ELEMENT_SET_NO":999,"REV_AT_EPOCH":19601,"BSTAR":4.2660868e-5,"MEAN_MOTION_DOT":4.9e-6,"MEAN_MOTION_DDOT":0},{"OBJECT_NAME":"AUREOLE 3","OBJECT_ID":"1981-094A","EPOCH":"2026-03-09T22:56:08.699136","MEAN_MOTION":14.57338362,"ECCENTRICITY":0.04661674,"INCLINATION":82.4728,"RA_OF_ASC_NODE":18.4217,"ARG_OF_PERICENTER":152.6496,"MEAN_ANOMALY":210.011,"EPHEMERIS_TYPE":0,"CLASSIFICATION_TYPE":"U","NORAD_CAT_ID":12848,"ELEMENT_SET_NO":999,"REV_AT_EPOCH":24579,"BSTAR":0.00036802008,"MEAN_MOTION_DOT":8.02e-5,"MEAN_MOTION_DDOT":0}]
